{
  "type": "FeatureCollection",
  "features": [
    {
      "type": "Feature",
      "properties": {
        "norad_id": 34976,
        "name": "COSMOS 2251 DEB",
        "group": "cosmos-2251-debris",
        "lat": 66.29326659966277,
        "lon": 63.28275174104382,
        "alt_km": 658.122578225727,
        "timestamp": "2025-12-24T03:53:30.042938+00:00",
        "meta_object_name": "COSMOS 2251 DEB",
        "meta_object_id": "1993-036AFF",
        "meta_epoch": "2025-12-22T20:46:21.906912",
        "meta_mean_motion": 14.7677373,
        "meta_eccentricity": 0.00478521,
        "meta_inclination": 74.0584,
        "meta_ra_of_asc_node": 286.4319,
        "meta_arg_of_pericenter": 331.0215,
        "meta_mean_anomaly": 85.833,
        "meta_ephemeris_type": 0,
        "meta_classification_type": "U",
        "meta_norad_cat_id": 34976,
        "meta_element_set_no": 999,
        "meta_rev_at_epoch": 88423,
        "meta_bstar": 0.001579307,
        "meta_mean_motion_dot": 0.00011269,
        "meta_mean_motion_ddot": 0,
        "tle_line1": "1 34976U 93036AFF 25356.86553133  .00011269  00000+0  15793-2 0  9990",
        "tle_line2": "2 34976  74.0584 286.4319 0047852 331.0215  85.8330 14.76773730884230"
      },
      "geometry": {
        "type": "Point",
        "coordinates": [
          63.28275174104382,
          66.29326659966277
        ]
      }
    },
    {
      "type": "Feature",
      "properties": {
        "norad_id": 34979,
        "name": "COSMOS 2251 DEB",
        "group": "cosmos-2251-debris",
        "lat": -73.99570082640325,
        "lon": 150.99964576953016,
        "alt_km": 616.0875270557435,
        "timestamp": "2025-12-24T03:53:30.042949+00:00",
        "meta_object_name": "COSMOS 2251 DEB",
        "meta_object_id": "1993-036AFJ",
        "meta_epoch": "2025-12-22T16:35:49.545024",
        "meta_mean_motion": 14.7951388,
        "meta_eccentricity": 0.00491991,
        "meta_inclination": 74.0391,
        "meta_ra_of_asc_node": 247.682,
        "meta_arg_of_pericenter": 323.5515,
        "meta_mean_anomaly": 36.2314,
        "meta_ephemeris_type": 0,
        "meta_classification_type": "U",
        "meta_norad_cat_id": 34979,
        "meta_element_set_no": 999,
        "meta_rev_at_epoch": 88367,
        "meta_bstar": 0.0010881328,
        "meta_mean_motion_dot": 8.281e-05,
        "meta_mean_motion_ddot": 0,
        "tle_line1": "1 34979U 93036AFJ 25356.69154566  .00008281  00000+0  10881-2 0  9994",
        "tle_line2": "2 34979  74.0391 247.6820 0049199 323.5515  36.2314 14.79513880883670"
      },
      "geometry": {
        "type": "Point",
        "coordinates": [
          150.99964576953016,
          -73.99570082640325
        ]
      }
    },
    {
      "type": "Feature",
      "properties": {
        "norad_id": 34990,
        "name": "COSMOS 2251 DEB",
        "group": "cosmos-2251-debris",
        "lat": -63.99914894573848,
        "lon": -165.74248441959347,
        "alt_km": 745.6248212305891,
        "timestamp": "2025-12-24T03:53:30.042959+00:00",
        "meta_object_name": "COSMOS 2251 DEB",
        "meta_object_id": "1993-036AFN",
        "meta_epoch": "2025-12-15T10:28:28.781472",
        "meta_mean_motion": 14.42382837,
        "meta_eccentricity": 0.00165597,
        "meta_inclination": 74.0457,
        "meta_ra_of_asc_node": 246.3361,
        "meta_arg_of_pericenter": 308.9911,
        "meta_mean_anomaly": 50.977,
        "meta_ephemeris_type": 0,
        "meta_classification_type": "U",
        "meta_norad_cat_id": 34990,
        "meta_element_set_no": 999,
        "meta_rev_at_epoch": 87385,
        "meta_bstar": 0.00031884459,
        "meta_mean_motion_dot": 1.029e-05,
        "meta_mean_motion_ddot": 0,
        "tle_line1": "1 34990U 93036AFN 25349.43644423  .00001029  00000+0  31884-3 0  9997",
        "tle_line2": "2 34990  74.0457 246.3361 0016559 308.9911  50.9770 14.42382837873857"
      },
      "geometry": {
        "type": "Point",
        "coordinates": [
          -165.74248441959347,
          -63.99914894573848
        ]
      }
    },
    {
      "type": "Feature",
      "properties": {
        "norad_id": 34997,
        "name": "COSMOS 2251 DEB",
        "group": "cosmos-2251-debris",
        "lat": -46.50824196081764,
        "lon": 127.43847293266393,
        "alt_km": 688.4402242214164,
        "timestamp": "2025-12-24T03:53:30.042969+00:00",
        "meta_object_name": "COSMOS 2251 DEB",
        "meta_object_id": "1993-036AFV",
        "meta_epoch": "2025-12-22T02:39:53.440416",
        "meta_mean_motion": 14.45657457,
        "meta_eccentricity": 0.0097328,
        "meta_inclination": 73.8808,
        "meta_ra_of_asc_node": 293.5509,
        "meta_arg_of_pericenter": 267.0492,
        "meta_mean_anomaly": 91.9523,
        "meta_ephemeris_type": 0,
        "meta_classification_type": "U",
        "meta_norad_cat_id": 34997,
        "meta_element_set_no": 999,
        "meta_rev_at_epoch": 70882,
        "meta_bstar": 0.0015391452,
        "meta_mean_motion_dot": 5.746e-05,
        "meta_mean_motion_ddot": 0,
        "tle_line1": "1 34997U 93036AFV 25356.11103519  .00005746  00000+0  15391-2 0  9997",
        "tle_line2": "2 34997  73.8808 293.5509 0097328 267.0492  91.9523 14.45657457708822"
      },
      "geometry": {
        "type": "Point",
        "coordinates": [
          127.43847293266393,
          -46.50824196081764
        ]
      }
    },
    {
      "type": "Feature",
      "properties": {
        "norad_id": 34998,
        "name": "COSMOS 2251 DEB",
        "group": "cosmos-2251-debris",
        "lat": -71.03580979167988,
        "lon": 15.085182382699985,
        "alt_km": 720.7091840134135,
        "timestamp": "2025-12-24T03:53:30.042980+00:00",
        "meta_object_name": "COSMOS 2251 DEB",
        "meta_object_id": "1993-036AFW",
        "meta_epoch": "2025-12-22T03:28:26.266080",
        "meta_mean_motion": 14.49318679,
        "meta_eccentricity": 0.00214468,
        "meta_inclination": 74.0103,
        "meta_ra_of_asc_node": 142.3159,
        "meta_arg_of_pericenter": 286.5677,
        "meta_mean_anomaly": 251.5263,
        "meta_ephemeris_type": 0,
        "meta_classification_type": "U",
        "meta_norad_cat_id": 34998,
        "meta_element_set_no": 999,
        "meta_rev_at_epoch": 87556,
        "meta_bstar": 0.00058847392,
        "meta_mean_motion_dot": 2.226e-05,
        "meta_mean_motion_ddot": 0,
        "tle_line1": "1 34998U 93036AFW 25356.14474845  .00002226  00000+0  58847-3 0  9998",
        "tle_line2": "2 34998  74.0103 142.3159 0021446 286.5677 251.5263 14.49318679875560"
      },
      "geometry": {
        "type": "Point",
        "coordinates": [
          15.085182382699985,
          -71.03580979167988
        ]
      }
    },
    {
      "type": "Feature",
      "properties": {
        "norad_id": 35012,
        "name": "COSMOS 2251 DEB",
        "group": "cosmos-2251-debris",
        "lat": 70.50782731819605,
        "lon": 144.46753137552,
        "alt_km": 782.7560381111016,
        "timestamp": "2025-12-24T03:53:30.042991+00:00",
        "meta_object_name": "COSMOS 2251 DEB",
        "meta_object_id": "1993-036AFZ",
        "meta_epoch": "2025-12-23T12:34:30.672768",
        "meta_mean_motion": 14.45561998,
        "meta_eccentricity": 0.0081406,
        "meta_inclination": 74.0207,
        "meta_ra_of_asc_node": 91.6092,
        "meta_arg_of_pericenter": 229.4511,
        "meta_mean_anomaly": 129.9541,
        "meta_ephemeris_type": 0,
        "meta_classification_type": "U",
        "meta_norad_cat_id": 35012,
        "meta_element_set_no": 999,
        "meta_rev_at_epoch": 87717,
        "meta_bstar": 0.000169,
        "meta_mean_motion_dot": 5.92e-06,
        "meta_mean_motion_ddot": 0,
        "tle_line1": "1 35012U 93036AFZ 25357.52396612  .00000592  00000+0  16900-3 0  9992",
        "tle_line2": "2 35012  74.0207  91.6092 0081406 229.4511 129.9541 14.45561998877176"
      },
      "geometry": {
        "type": "Point",
        "coordinates": [
          144.46753137552,
          70.50782731819605
        ]
      }
    },
    {
      "type": "Feature",
      "properties": {
        "norad_id": 35014,
        "name": "COSMOS 2251 DEB",
        "group": "cosmos-2251-debris",
        "lat": -31.141755560813312,
        "lon": 11.169288294012285,
        "alt_km": 652.4443277163382,
        "timestamp": "2025-12-24T03:53:30.043001+00:00",
        "meta_object_name": "COSMOS 2251 DEB",
        "meta_object_id": "1993-036AGB",
        "meta_epoch": "2025-12-22T09:43:37.618464",
        "meta_mean_motion": 14.75357031,
        "meta_eccentricity": 0.00066485,
        "meta_inclination": 73.9987,
        "meta_ra_of_asc_node": 24.596,
        "meta_arg_of_pericenter": 203.6446,
        "meta_mean_anomaly": 156.4423,
        "meta_ephemeris_type": 0,
        "meta_classification_type": "U",
        "meta_norad_cat_id": 35014,
        "meta_element_set_no": 999,
        "meta_rev_at_epoch": 71479,
        "meta_bstar": 0.0015862083,
        "meta_mean_motion_dot": 0.00010749,
        "meta_mean_motion_ddot": 0,
        "tle_line1": "1 35014U 93036AGB 25356.40529651  .00010749  00000+0  15862-2 0  9991",
        "tle_line2": "2 35014  73.9987  24.5960 0006648 203.6446 156.4423 14.75357031714792"
      },
      "geometry": {
        "type": "Point",
        "coordinates": [
          11.169288294012285,
          -31.141755560813312
        ]
      }
    }
  ]
}